[{"OBJECT_NAME":"BRO-15","OBJECT_ID":"2024-149CP","EPOCH":"2026-03-09T18:52:33.918816","MEAN_MOTION":14.95892184,"ECCENTRICITY":0.00093198,"INCLINATION":97.6864,"RA_OF_ASC_NODE":146.0377,"ARG_OF_PERICENTER":65.4416,"MEAN_ANOMALY":294.7775,"EPHEMERIS_TYPE":0,"CLASSIFICATION_TYPE":"U","NORAD_CAT_ID":60553,"ELEMENT_SET_NO":999,"REV_AT_EPOCH":8514,"BSTAR":7.8021491e-5,"MEAN_MOTION_DOT":8.16e-6,"MEAN_MOTION_DDOT":0},{"OBJECT_NAME":"STARLINK-34021","OBJECT_ID":"2025-098Q","EPOCH":"2026-03-09T22:20:22.159392","MEAN_MOTION":14.98327028,"ECCENTRICITY":0.00042228,"INCLINATION":70.0012,"RA_OF_ASC_NODE":274.0373,"ARG_OF_PERICENTER":264.0878,"MEAN_ANOMALY":95.98,"EPHEMERIS_TYPE":0,"CLASSIFICATION_TYPE":"U","NORAD_CAT_ID":63940,"ELEMENT_SET_NO":999,"REV_AT_EPOCH":4658,"BSTAR":-0.0028715182,"MEAN_MOTION_DOT":-0.0003419,"MEAN_MOTION_DDOT":0}]
